{
  "links" : {
    "next" : "https://api.nasa.gov/neo/rest/v1/feed?start_date=2008-08-23&end_date=2008-08-23&detailed=true&api_key=t0TVs3DtDT2H8Oy2Zy8m2eVrNsAVKAexjcZXUckd",
    "prev" : "https://api.nasa.gov/neo/rest/v1/feed?start_date=2008-08-21&end_date=2008-08-21&detailed=true&api_key=t0TVs3DtDT2H8Oy2Zy8m2eVrNsAVKAexjcZXUckd",
    "self" : "https://api.nasa.gov/neo/rest/v1/feed?start_date=2008-08-22&end_date=2008-08-22&detailed=true&api_key=t0TVs3DtDT2H8Oy2Zy8m2eVrNsAVKAexjcZXUckd"
  },
  "element_count" : 6,
  "near_earth_objects" : {
    "2008-08-22" : [ {
      "links" : {
        "self" : "https://api.nasa.gov/neo/rest/v1/neo/3279865?api_key=t0TVs3DtDT2H8Oy2Zy8m2eVrNsAVKAexjcZXUckd"
      },
      "neo_reference_id" : "3279865",
      "name" : "(2005 LZ42)",
      "nasa_jpl_url" : "http://ssd.jpl.nasa.gov/sbdb.cgi?sstr=3279865",
      "absolute_magnitude_h" : 21.3,
      "estimated_diameter" : {
        "kilometers" : {
          "estimated_diameter_min" : 0.1460679643,
          "estimated_diameter_max" : 0.3266178974
        },
        "meters" : {
          "estimated_diameter_min" : 146.0679642714,
          "estimated_diameter_max" : 326.6178974458
        },
        "miles" : {
          "estimated_diameter_min" : 0.090762397,
          "estimated_diameter_max" : 0.2029508896
        },
        "feet" : {
          "estimated_diameter_min" : 479.2256199,
          "estimated_diameter_max" : 1071.581062656
        }
      },
      "is_potentially_hazardous_asteroid" : false,
      "close_approach_data" : [ {
        "close_approach_date" : "2008-08-22",
        "epoch_date_close_approach" : 1219388400000,
        "relative_velocity" : {
          "kilometers_per_second" : "6.896069696",
          "kilometers_per_hour" : "24825.8509054553",
          "miles_per_hour" : "15425.8183028925"
        },
        "miss_distance" : {
          "astronomical" : "0.1071627801",
          "lunar" : "41.6863212585",
          "kilometers" : "16031324",
          "miles" : "9961403"
        },
        "orbiting_body" : "Earth"
      } ],
      "orbital_data" : {
        "orbit_id" : "18",
        "orbit_determination_date" : "2017-04-06 09:10:52",
        "orbit_uncertainty" : "0",
        "minimum_orbit_intersection" : ".081858",
        "jupiter_tisserand_invariant" : "3.574",
        "epoch_osculation" : "2458000.5",
        "eccentricity" : ".4946257787285241",
        "semi_major_axis" : "2.099463016253868",
        "inclination" : "7.26500068273459",
        "ascending_node_longitude" : "109.5366237735776",
        "orbital_period" : "1111.119500729811",
        "perihelion_distance" : "1.061014486927562",
        "perihelion_argument" : "220.7055886646192",
        "aphelion_distance" : "3.137911545580173",
        "perihelion_time" : "2458035.751062430373",
        "mean_anomaly" : "348.5787420105588",
        "mean_motion" : ".323997553605659",
        "equinox" : "J2000"
      }
    }, {
      "links" : {
        "self" : "https://api.nasa.gov/neo/rest/v1/neo/3363422?api_key=t0TVs3DtDT2H8Oy2Zy8m2eVrNsAVKAexjcZXUckd"
      },
      "neo_reference_id" : "3363422",
      "name" : "(2006 XK2)",
      "nasa_jpl_url" : "http://ssd.jpl.nasa.gov/sbdb.cgi?sstr=3363422",
      "absolute_magnitude_h" : 20.5,
      "estimated_diameter" : {
        "kilometers" : {
          "estimated_diameter_min" : 0.2111324448,
          "estimated_diameter_max" : 0.4721064988
        },
        "meters" : {
          "estimated_diameter_min" : 211.1324447897,
          "estimated_diameter_max" : 472.1064988055
        },
        "miles" : {
          "estimated_diameter_min" : 0.1311915784,
          "estimated_diameter_max" : 0.2933532873
        },
        "feet" : {
          "estimated_diameter_min" : 692.6917701639,
          "estimated_diameter_max" : 1548.9058855411
        }
      },
      "is_potentially_hazardous_asteroid" : false,
      "close_approach_data" : [ {
        "close_approach_date" : "2008-08-22",
        "epoch_date_close_approach" : 1219388400000,
        "relative_velocity" : {
          "kilometers_per_second" : "22.6323105811",
          "kilometers_per_hour" : "81476.3180919478",
          "miles_per_hour" : "50626.215538855"
        },
        "miss_distance" : {
          "astronomical" : "0.4773243707",
          "lunar" : "185.67918396",
          "kilometers" : "71406712",
          "miles" : "44370072"
        },
        "orbiting_body" : "Earth"
      } ],
      "orbital_data" : {
        "orbit_id" : "20",
        "orbit_determination_date" : "2017-04-06 09:07:23",
        "orbit_uncertainty" : "1",
        "minimum_orbit_intersection" : ".0533667",
        "jupiter_tisserand_invariant" : "4.198",
        "epoch_osculation" : "2458000.5",
        "eccentricity" : ".6476476331389912",
        "semi_major_axis" : "1.540251138124411",
        "inclination" : "8.661521497689048",
        "ascending_node_longitude" : "93.1342301354502",
        "orbital_period" : "698.2094691370245",
        "perihelion_distance" : ".5427111340784989",
        "perihelion_argument" : "240.443168262866",
        "aphelion_distance" : "2.537791142170323",
        "perihelion_time" : "2458193.836330279211",
        "mean_anomaly" : "260.3149026515757",
        "mean_motion" : ".5156045798762284",
        "equinox" : "J2000"
      }
    }, {
      "links" : {
        "self" : "https://api.nasa.gov/neo/rest/v1/neo/3426411?api_key=t0TVs3DtDT2H8Oy2Zy8m2eVrNsAVKAexjcZXUckd"
      },
      "neo_reference_id" : "3426411",
      "name" : "(2008 QW11)",
      "nasa_jpl_url" : "http://ssd.jpl.nasa.gov/sbdb.cgi?sstr=3426411",
      "absolute_magnitude_h" : 23.3,
      "estimated_diameter" : {
        "kilometers" : {
          "estimated_diameter_min" : 0.058150704,
          "estimated_diameter_max" : 0.130028927
        },
        "meters" : {
          "estimated_diameter_min" : 58.1507039646,
          "estimated_diameter_max" : 130.0289270043
        },
        "miles" : {
          "estimated_diameter_min" : 0.0361331611,
          "estimated_diameter_max" : 0.0807962044
        },
        "feet" : {
          "estimated_diameter_min" : 190.7831555951,
          "estimated_diameter_max" : 426.6041048727
        }
      },
      "is_potentially_hazardous_asteroid" : false,
      "close_approach_data" : [ {
        "close_approach_date" : "2008-08-22",
        "epoch_date_close_approach" : 1219388400000,
        "relative_velocity" : {
          "kilometers_per_second" : "6.9015931022",
          "kilometers_per_hour" : "24845.7351678108",
          "miles_per_hour" : "15438.1736102433"
        },
        "miss_distance" : {
          "astronomical" : "0.0698906835",
          "lunar" : "27.1874771118",
          "kilometers" : "10455498",
          "miles" : "6496745"
        },
        "orbiting_body" : "Earth"
      } ],
      "orbital_data" : {
        "orbit_id" : "16",
        "orbit_determination_date" : "2017-04-06 09:03:02",
        "orbit_uncertainty" : "6",
        "minimum_orbit_intersection" : ".0660612",
        "jupiter_tisserand_invariant" : "3.365",
        "epoch_osculation" : "2458000.5",
        "eccentricity" : ".5424888943140636",
        "semi_major_axis" : "2.317594644582269",
        "inclination" : "2.727321815056803",
        "ascending_node_longitude" : "101.7720330215043",
        "orbital_period" : "1288.708357003745",
        "perihelion_distance" : "1.060325288374639",
        "perihelion_argument" : "240.3303631884608",
        "aphelion_distance" : "3.5748640007899",
        "perihelion_time" : "2458575.418277332725",
        "mean_anomaly" : "199.3968823784234",
        "mean_motion" : ".2793494727053702",
        "equinox" : "J2000"
      }
    } ]
  }
}